{
  "norad_id": 62517,
  "name": "STARLINK-11512 [DTC]",
  "history": [
    {
      "epoch": "2026-03-28T15:23:47.683104",
      "apogee_km": 357.0766934939311,
      "perigee_km": 355.04027277983096,
      "latitude_deg": 17.57515109876806,
      "longitude_deg": 133.28631456010044,
      "semi_major_axis_km": 6734.195483136881,
      "eccentricity": 0.0001512,
      "inclination_deg": 42.9987,
      "raan_deg": 316.0912,
      "arg_perigee_deg": 245.5385,
      "mean_anomaly_deg": 114.5325,
      "mean_motion_rev_day": 15.70992759
    }
  ]
}